ONEWEB-0144             
1 47290U 20100AJ  25009.76987690  .00000205  00000+0  53489-3 0  9991
2 47290  87.8875  94.8679 0002089 109.5880 250.5474 13.12440558195915
ONEWEB-0145             
1 47291U 20100AK  25009.74067789  .00000075  00000+0  17283-3 0  9995
2 47291  87.8874  94.8986 0001846 108.7680 251.3649 13.12443182196106
ONEWEB-0146             
1 47292U 20100AL  25009.73742672 -.00000026  00000+0 -10801-3 0  9993
2 47292  87.8877  94.8846 0001372 100.1583 259.9701 13.12444265196013
ONEWEB-0147             
1 47293U 20100AM  25009.77960565 -.00000150  00000+0 -45275-3 0  9992
2 47293  87.8873  94.8622 0001780 116.0571 244.0741 13.12442314195918
ONEWEB-0115             
1 48042U 21025A   25009.68296960  .00000164  00000+0  41334-3 0  9998
2 48042  87.8898  64.3304 0001751  98.3154 261.8173 13.13467686184884
ONEWEB-0152             
1 48043U 21025B   25009.69565645 -.00000118  00000+0 -35815-3 0  9997
2 48043  87.8903  64.3337 0001717 102.4195 257.7126 13.13469836184849
ONEWEB-0153             
1 48044U 21025C   25009.67344681  .00000323  00000+0  85062-3 0  9996
2 48044  87.8905  64.3314 0001864  99.9524 260.1816 13.13470457184829
ONEWEB-0154             
1 48045U 21025D   25010.12733551  .00000347  00000+0  91390-3 0  9994
2 48045  87.8898  64.2458 0001770 101.4423 258.6905 13.13471190184851
